NORAD_CAT_ID,OBJECT_NAME,OBJECT_TYPE,EPOCH,MEAN_MOTION,ECCENTRICITY,INCLINATION,RA_OF_ASC_NODE,ARG_OF_PERICENTER,MEAN_ANOMALY,BSTAR,MEAN_MOTION_DOT,MEAN_MOTION_DDOT,TLE_LINE0,TLE_LINE1,TLE_LINE2,SEMIMAJOR_AXIS,PERIOD,APOGEE,PERIGEE,DECAYED
55419.0,STARLINK-5629,PAYLOAD,2023-02-27 06:04:01,15.6996291,0.0002756,70.0017,15.0159,257.5186,102.5701,0.00028958,0.00034804,0.0,0 STARLINK-5629,1 55419U 23014AE  23058.25279631  .00034804  00000-0  28958-3 0  9991,2 55419  70.0017  15.0159 0002756 257.5186 102.5701 15.69962910  4374,6737.14,91.722,360.862,357.148,0.0
55419.0,STARLINK-5629,PAYLOAD,2023-02-27 22:53:17,15.6994446,0.0003127,70.0004,13.0429,243.1234,116.9643,0.00022517,0.00026971,0.0,0 STARLINK-5629,1 55419U 23014AE  23058.95367832  .00026971  00000-0  22517-3 0  9990,2 55419  70.0004  13.0429 0003127 243.1234 116.9643 15.69944460  4482,6737.193,91.723,361.165,356.951,0.0
55419.0,STARLINK-5629,PAYLOAD,2023-02-28 06:32:03,15.69935762,0.0004696,70.0006,12.1471,271.1242,88.9416,0.00016582,0.00019788,0.0,0 STARLINK-5629,1 55419U 23014AE  23059.27226177  .00019788  00000-0  16582-3 0  9995,2 55419  70.0006  12.1471 0004696 271.1242  88.9416 15.69935762  4530,6737.218,91.723,362.247,355.919,0.0
55419.0,STARLINK-5629,PAYLOAD,2023-02-28 21:49:36,15.69894742,0.0003176,70.0023,10.3595,251.7951,108.2899,4.2765e-05,4.926e-05,0.0,0 STARLINK-5629,1 55419U 23014AE  23059.90944728  .00004926  00000-0  42765-4 0  9995,2 55419  70.0023  10.3595 0003176 251.7951 108.2899 15.69894742  5577,6737.335,91.726,361.34,357.06,0.0
55419.0,STARLINK-5629,PAYLOAD,2023-02-28 23:21:21,15.69899584,0.0002875,70.0024,10.18,251.6862,108.4021,8.2888e-05,9.755e-05,0.0,0 STARLINK-5629,1 55419U 23014AE  23059.97316527  .00009755  00000-0  82888-4 0  9997,2 55419  70.0024  10.1800 0002875 251.6862 108.4021 15.69899584  4645,6737.321,91.726,361.123,357.249,0.0
55419.0,STARLINK-5629,PAYLOAD,2023-03-01 05:28:21,15.69922107,0.0002715,70.0021,9.4632,234.2174,125.877,0.00014421,0.0001716,0.0,0 STARLINK-5629,1 55419U 23014AE  23060.22803224  .00017160  00000-0  14421-3 0  9998,2 55419  70.0021   9.4632 0002715 234.2174 125.8770 15.69922107  4688,6737.257,91.724,360.951,357.293,0.0
55419.0,STARLINK-5629,PAYLOAD,2023-03-01 22:17:37,15.69952301,0.0003219,70.0017,7.4916,251.1194,108.9653,0.00010989,0.00013036,0.0,0 STARLINK-5629,1 55419U 23014AE  23060.92890679  .00013036  00000-0  10989-3 0  9998,2 55419  70.0017   7.4916 0003219 251.1194 108.9653 15.69952301  5734,6737.17,91.723,361.204,356.867,0.0
55419.0,STARLINK-5629,PAYLOAD,2023-03-02 02:52:53,15.69932487,0.000373,69.9997,6.9518,259.4519,100.6256,7.0991e-05,8.335e-05,0.0,0 STARLINK-5629,1 55419U 23014AE  23061.12005817  .00008335  00000-0  70991-4 0  9999,2 55419  69.9997   6.9518 0003730 259.4519 100.6256 15.69932487  4820,6737.227,91.724,361.605,356.579,0.0
55419.0,STARLINK-5629,PAYLOAD,2023-03-02 05:56:23,15.69939573,0.0003402,69.9997,6.5922,258.6751,101.4062,7.4698e-05,8.784e-05,0.0,0 STARLINK-5629,1 55419U 23014AE  23061.24748928  .00008784  00000-0  74698-4 0  9995,2 55419  69.9997   6.5922 0003402 258.6751 101.4062 15.69939573  5783,6737.207,91.723,361.364,356.78,0.0
55419.0,STARLINK-5629,PAYLOAD,2023-03-03 06:24:24,15.6994115,0.0003384,69.9984,3.7244,256.4584,103.6235,3.6673e-05,4.202e-05,0.0,0 STARLINK-5629,1 55419U 23014AE  23062.26695020  .00004202  00000-0  36673-4 0  9994,2 55419  69.9984   3.7244 0003384 256.4584 103.6235 15.69941150  5009,6737.202,91.723,361.347,356.787,0.0
55419.0,STARLINK-5629,PAYLOAD,2023-03-04 02:17:11,15.69942097,0.0002903,69.9998,1.3964,260.2171,99.8697,6.4997e-05,7.615e-05,0.0,0 STARLINK-5629,1 55419U 23014AE  23063.09526821  .00007615  00000-0  64997-4 0  9999,2 55419  69.9998   1.3964 0002903 260.2171  99.8697 15.69942097  5131,6737.2,91.723,361.02,357.109,0.0
55419.0,STARLINK-5629,PAYLOAD,2023-03-04 11:27:24,15.70615558,0.0005452,69.9998,0.3207,280.4678,79.5903,0.0024599,0.00315998,0.0,0 STARLINK-5629,1 55419U 23014AE  23063.47737099  .00315998  00000-0  24599-2 0  9990,2 55419  69.9998   0.3207 0005452 280.4678  79.5903 15.70615558  5190,6735.274,91.684,360.811,353.467,0.0
55419.0,STARLINK-5629,PAYLOAD,2023-03-04 12:59:23,15.69968978,0.0002813,69.9998,0.143,294.5848,65.5054,-8.3721e-06,-1.221e-05,0.0,0 STARLINK-5629,1 55419U 23014AE  23063.54123987 -.00001221  00000-0 -83721-5 0  9991,2 55419  69.9998   0.1430 0002813 294.5848  65.5054 15.69968978  6142,6737.123,91.722,360.883,357.093,0.0
55419.0,STARLINK-5629,PAYLOAD,2023-03-04 20:38:17,15.69746,0.0006414,69.9985,359.2464,309.167,50.8955,-0.00047221,-0.00056253,0.0,0 STARLINK-5629,1 55419U 23014AE  23063.85992625 -.00056253  00000-0 -47221-3 0  9996,2 55419  69.9985 359.2464 0006414 309.1670  50.8955 15.69746000  5258,6737.761,91.735,363.947,355.304,0.0
55419.0,STARLINK-5629,PAYLOAD,2023-03-04 22:00:00,15.69991924,0.0003651,69.9994,359.087,269.2526,51.7329,-0.00073926,-0.00088428,0.0,0 STARLINK-5629,1 55419U 23014AE  23063.91667824 -.00088428  00000-0 -73926-3 0  9993,2 55419  69.9994 359.0870 0003651 269.2526  51.7329 15.69991924  5266,6737.057,91.72,361.382,356.462,0.0
55419.0,STARLINK-5629,PAYLOAD,2023-03-05 05:48:43,15.69925391,0.0002889,69.9988,358.1717,298.9222,61.1684,-3.4005e-06,-6.21e-06,0.0,0 STARLINK-5629,1 55419U 23014AE  23064.24216541 -.00000621  00000-0 -34005-5 0  9992,2 55419  69.9988 358.1717 0002889 298.9222  61.1684 15.69925391  5313,6737.247,91.724,361.059,357.166,0.0
55419.0,STARLINK-5629,PAYLOAD,2023-03-05 22:37:59,15.69922398,0.000352,69.9999,356.2011,273.4241,86.6552,-8.21e-06,-1.2e-05,0.0,0 STARLINK-5629,1 55419U 23014AE  23064.94304918 -.00001200  00000-0 -82100-5 0  9998,2 55419  69.9999 356.2011 0003520 273.4241  86.6552 15.69922398  6369,6737.256,91.724,361.493,356.75,0.0
55419.0,STARLINK-5629,PAYLOAD,2023-03-06 07:48:30,15.69913453,0.0003069,69.9987,355.1256,282.2861,77.7991,-1.3358e-05,-1.818e-05,0.0,0 STARLINK-5629,1 55419U 23014AE  23065.32535647 -.00001818  00000-0 -13358-4 0  9999,2 55419  69.9987 355.1256 0003069 282.2861  77.7991 15.69913453  5481,6737.282,91.725,361.214,357.079,0.0
55419.0,STARLINK-5629,PAYLOAD,2023-03-06 18:30:46,15.69926077,0.0002412,69.9987,353.8711,291.8023,68.2916,-0.00011854,-0.0001444,0.0,0 STARLINK-5629,1 55419U 23014AE  23065.77137087 -.00014440  00000-0 -11854-3 0  9997,2 55419  69.9987 353.8711 0002412 291.8023  68.2916 15.69926077  5555,6737.245,91.724,360.736,357.485,0.0
55419.0,STARLINK-5629,PAYLOAD,2023-03-06 21:34:24,15.69783282,0.000403,70.0008,353.5147,302.9507,57.13,0.00080853,0.00097585,0.0,0 STARLINK-5629,1 55419U 23014AE  23065.89890035  .00097585  00000-0  80853-3 0  9993,2 55419  70.0008 353.5147 0004030 302.9507  57.1300 15.69783282  6511,6737.654,91.732,362.234,356.804,0.0
55419.0,STARLINK-5629,PAYLOAD,2023-03-07 05:13:02,15.69944261,0.0003529,70.0002,352.6178,263.704,96.3753,6.0521e-05,7.077e-05,0.0,0 STARLINK-5629,1 55419U 23014AE  23066.21738820  .00007077  00000-0  60521-4 0  9991,2 55419  70.0002 352.6178 0003529 263.7040  96.3753 15.69944261  5621,6737.193,91.723,361.436,356.681,0.0
55419.0,STARLINK-5629,PAYLOAD,2023-03-07 18:58:47,15.69970241,0.0003374,69.999,351.0063,252.4364,107.6463,0.00010644,0.00012629,0.0,0 STARLINK-5629,1 55419U 23014AE  23066.79082699  .00012629  00000-0  10644-3 0  9999,2 55419  69.9990 351.0063 0003374 252.4364 107.6463 15.69970241  5713,6737.119,91.721,361.257,356.711,0.0
55419.0,STARLINK-5629,PAYLOAD,2023-03-08 02:37:31,15.6999859,0.0003622,69.9994,350.11,263.2253,96.8531,0.00015545,0.00018579,0.0,0 STARLINK-5629,1 55419U 23014AE  23067.10938842  .00018579  00000-0  15545-3 0  9990,2 55419  69.9994 350.1100 0003622 263.2253  96.8531 15.69998590  5769,6737.038,91.72,361.343,356.463,0.0
55419.0,STARLINK-5629,PAYLOAD,2023-03-08 04:09:17,15.69957194,0.0003091,69.999,349.9311,263.5438,96.5405,4.4945e-05,5.202e-05,0.0,0 STARLINK-5629,1 55419U 23014AE  23067.17311946  .00005202  00000-0  44945-4 0  9993,2 55419  69.9990 349.9311 0003091 263.5438  96.5405 15.69957194  5776,6737.156,91.722,361.104,356.939,0.0
55419.0,STARLINK-5629,PAYLOAD,2023-03-08 17:55:04,15.69926718,0.0003378,69.998,348.3175,262.1721,97.9092,-1.5204e-05,-2.041e-05,0.0,0 STARLINK-5629,1 55419U 23014AE  23067.74657667 -.00002041  00000-0 -15204-4 0  9995,2 55419  69.9980 348.3175 0003378 262.1721  97.9092 15.69926718  5869,6737.244,91.724,361.384,356.833,0.0
55419.0,STARLINK-5629,PAYLOAD,2023-03-09 19:54:52,15.69917794,0.0002774,69.9972,345.2721,270.8477,89.2401,-6.438e-05,-7.943e-05,0.0,0 STARLINK-5629,1 55419U 23014AE  23068.82977384 -.00007943  00000-0 -64380-4 0  9991,2 55419  69.9972 345.2721 0002774 270.8477  89.2401 15.69917794  6038,6737.269,91.725,361.003,357.265,0.0
55419.0,STARLINK-5629,PAYLOAD,2023-03-09 21:26:37,15.69930701,0.0003505,69.9987,345.0951,264.0615,96.0181,-3.0518e-05,-3.882e-05,0.0,0 STARLINK-5629,1 55419U 23014AE  23068.89348456 -.00003882  00000-0 -30518-4 0  9994,2 55419  69.9987 345.0951 0003505 264.0615  96.0181 15.69930701  6987,6737.232,91.724,361.459,356.736,0.0
55419.0,STARLINK-5629,PAYLOAD,2023-03-10 03:33:37,15.6993416,0.0003397,69.9971,344.3765,263.0795,97.0014,-1.5074e-05,-2.026e-05,0.0,0 STARLINK-5629,1 55419U 23014AE  23069.14834822 -.00002026  00000-0 -15074-4 0  9999,2 55419  69.9971 344.3765 0003397 263.0795  97.0014 15.69934160  6082,6737.222,91.724,361.376,356.799,0.0
55419.0,STARLINK-5629,PAYLOAD,2023-03-10 11:12:25,15.6990013,0.0002187,69.9996,343.4826,274.3353,85.7592,-1.8036e-06,-4.29e-06,0.0,0 STARLINK-5629,1 55419U 23014AE  23069.46695822 -.00000429  00000-0 -18036-5 0  9996,2 55419  69.9996 343.4826 0002187 274.3353  85.7592 15.69900130  6139,6737.32,91.726,360.658,357.711,0.0
55419.0,STARLINK-5629,PAYLOAD,2023-03-10 20:22:55,15.69901563,0.0003177,69.9969,342.4066,270.1836,89.8995,3.2806e-05,3.73e-05,0.0,0 STARLINK-5629,1 55419U 23014AE  23069.84925882  .00003730  00000-0  32806-4 0  9996,2 55419  69.9969 342.4066 0003177 270.1836  89.8995 15.69901563  7138,6737.316,91.725,361.321,357.04,0.0
